ONEWEB-0574             
1 56063U 23043T   24108.31580338  .00000033  00000+0  49567-4 0  9998
2 56063  87.9304  41.3875 0001996  83.3031 276.8330 13.21826999 53797
ONEWEB-0575             
1 56064U 23043U   24108.33222476 -.00000267  00000+0 -73330-3 0  9992
2 56064  87.9153  26.1808 0002126  61.7215 298.4130 13.16593996 54901
ONEWEB-0576             
1 56065U 23043V   24108.31323061  .00000134  00000+0  31774-3 0  9990
2 56065  87.9148  26.1837 0002248  72.7417 287.3960 13.16593256 54894
ONEWEB-0577             
1 56066U 23043W   24108.31957329  .00000058  00000+0  11917-3 0  9993
2 56066  87.9149  26.1813 0002171  55.1575 304.9760 13.16593849 54921
ONEWEB-0578             
1 56067U 23043X   24108.30318912  .00000202  00000+0  45778-3 0  9995
2 56067  87.9308  41.3863 0002110  79.6823 280.4548 13.21825412 53755
ONEWEB-0579             
1 56068U 23043Y   24108.29372055  .00000185  00000+0  41757-3 0  9995
2 56068  87.9303  41.3874 0001456  78.8488 281.2810 13.21828135 53760
ONEWEB-0581             
1 56069U 23043Z   24108.32589337  .00000020  00000+0  19613-4 0  9998
2 56069  87.9149  26.2096 0001759  59.5090 300.6215 13.16592863 54898
ONEWEB-0609             
1 56070U 23043AA  24108.41572206 -.00000022  00000+0 -91533-4 0  9992
2 56070  87.9030  56.5769 0001925  83.4047 276.7302 13.15548670 52462
